CCSDS_OMM_VERS = 2.0
CREATION_DATE  = 
ORIGINATOR     = 

OBJECT_NAME    = STARLINK-36904
OBJECT_ID      = 2026-038S
CENTER_NAME    = EARTH
REF_FRAME      = TEME
TIME_SYSTEM    = UTC
MEAN_ELEMENT_THEORY = SGP/SGP4

EPOCH          = 2026-03-25T14:00:01.999872
MEAN_MOTION    = 15.46822418
ECCENTRICITY   = .00018542
INCLINATION    = 97.2861
RA_OF_ASC_NODE = 95.4803
ARG_OF_PERICENTER = 72.3499
MEAN_ANOMALY   = 12.3943

EPHEMERIS_TYPE = 0
CLASSIFICATION_TYPE = U
NORAD_CAT_ID   = 67977
ELEMENT_SET_NO = 999
REV_AT_EPOCH   = 575
BSTAR          = -.57276268E-1
MEAN_MOTION_DOT = -.2539322E-1
MEAN_MOTION_DDOT = 0

CCSDS_OMM_VERS = 2.0
CREATION_DATE  = 
ORIGINATOR     = 

OBJECT_NAME    = STARLINK-36364
OBJECT_ID      = 2026-038T
CENTER_NAME    = EARTH
REF_FRAME      = TEME
TIME_SYSTEM    = UTC
MEAN_ELEMENT_THEORY = SGP/SGP4

EPOCH          = 2026-03-25T14:00:01.999872
MEAN_MOTION    = 15.38643835
ECCENTRICITY   = .00019621
INCLINATION    = 97.2857
RA_OF_ASC_NODE = 95.5284
ARG_OF_PERICENTER = 81.7548
MEAN_ANOMALY   = 101.2664

EPHEMERIS_TYPE = 0
CLASSIFICATION_TYPE = U
NORAD_CAT_ID   = 67978
ELEMENT_SET_NO = 999
REV_AT_EPOCH   = 575
BSTAR          = -.66847835E-1
MEAN_MOTION_DOT = -.2279189E-1
MEAN_MOTION_DDOT = 0

CCSDS_OMM_VERS = 2.0
CREATION_DATE  = 
ORIGINATOR     = 

OBJECT_NAME    = STARLINK-36359
OBJECT_ID      = 2026-038U
CENTER_NAME    = EARTH
REF_FRAME      = TEME
TIME_SYSTEM    = UTC
MEAN_ELEMENT_THEORY = SGP/SGP4

EPOCH          = 2026-03-25T14:00:01.999872
MEAN_MOTION    = 15.39609748
ECCENTRICITY   = .00016816
INCLINATION    = 97.2858
RA_OF_ASC_NODE = 95.4854
ARG_OF_PERICENTER = 90.3186
MEAN_ANOMALY   = 351.8222

EPHEMERIS_TYPE = 0
CLASSIFICATION_TYPE = U
NORAD_CAT_ID   = 67979
ELEMENT_SET_NO = 999
REV_AT_EPOCH   = 575
BSTAR          = -.64375948E-1
MEAN_MOTION_DOT = -.2267005E-1
MEAN_MOTION_DDOT = 0

CCSDS_OMM_VERS = 2.0
CREATION_DATE  = 
ORIGINATOR     = 

OBJECT_NAME    = STARLINK-36882
OBJECT_ID      = 2026-038V
CENTER_NAME    = EARTH
REF_FRAME      = TEME
TIME_SYSTEM    = UTC
MEAN_ELEMENT_THEORY = SGP/SGP4

EPOCH          = 2026-03-25T00:00:02.000160
MEAN_MOTION    = 15.48891017
ECCENTRICITY   = .00015188
INCLINATION    = 97.2857
RA_OF_ASC_NODE = 94.8951
ARG_OF_PERICENTER = 74.0449
MEAN_ANOMALY   = 4.3746

EPHEMERIS_TYPE = 0
CLASSIFICATION_TYPE = U
NORAD_CAT_ID   = 67980
ELEMENT_SET_NO = 999
REV_AT_EPOCH   = 566
BSTAR          = -.50845938E-1
MEAN_MOTION_DOT = -.243587E-1
MEAN_MOTION_DDOT = 0

CCSDS_OMM_VERS = 2.0
CREATION_DATE  = 
ORIGINATOR     = 

OBJECT_NAME    = STARLINK-36874
OBJECT_ID      = 2026-038W
CENTER_NAME    = EARTH
REF_FRAME      = TEME
TIME_SYSTEM    = UTC
MEAN_ELEMENT_THEORY = SGP/SGP4

EPOCH          = 2026-03-25T14:00:01.999872
MEAN_MOTION    = 15.38602466
ECCENTRICITY   = .00020557
INCLINATION    = 97.2860
RA_OF_ASC_NODE = 95.5343
ARG_OF_PERICENTER = 84.7139
MEAN_ANOMALY   = 113.4716

EPHEMERIS_TYPE = 0
CLASSIFICATION_TYPE = U
NORAD_CAT_ID   = 67981
ELEMENT_SET_NO = 999
REV_AT_EPOCH   = 575
BSTAR          = -.67173441E-1
MEAN_MOTION_DOT = -.2286406E-1
MEAN_MOTION_DDOT = 0

CCSDS_OMM_VERS = 2.0
CREATION_DATE  = 
ORIGINATOR     = 

OBJECT_NAME    = STARLINK-36879
OBJECT_ID      = 2026-038X
CENTER_NAME    = EARTH
REF_FRAME      = TEME
TIME_SYSTEM    = UTC
MEAN_ELEMENT_THEORY = SGP/SGP4

EPOCH          = 2026-03-25T11:34:13.702656
MEAN_MOTION    = 15.49229806
ECCENTRICITY   = .0000504
INCLINATION    = 97.2847
RA_OF_ASC_NODE = 95.2775
ARG_OF_PERICENTER = 104.4670
MEAN_ANOMALY   = 255.6637

EPHEMERIS_TYPE = 0
CLASSIFICATION_TYPE = U
NORAD_CAT_ID   = 67982
ELEMENT_SET_NO = 999
REV_AT_EPOCH   = 565
BSTAR          = .16419833E-2
MEAN_MOTION_DOT = .90372E-3
MEAN_MOTION_DDOT = 0

CCSDS_OMM_VERS = 2.0
CREATION_DATE  = 
ORIGINATOR     = 

OBJECT_NAME    = STARLINK-36867
OBJECT_ID      = 2026-038Y
CENTER_NAME    = EARTH
REF_FRAME      = TEME
TIME_SYSTEM    = UTC
MEAN_ELEMENT_THEORY = SGP/SGP4

EPOCH          = 2026-03-24T18:11:59.224704
MEAN_MOTION    = 15.49209141
ECCENTRICITY   = .00014676
INCLINATION    = 97.2855
RA_OF_ASC_NODE = 94.5778
ARG_OF_PERICENTER = 84.0165
MEAN_ANOMALY   = 276.1253

EPHEMERIS_TYPE = 0
CLASSIFICATION_TYPE = U
NORAD_CAT_ID   = 67983
ELEMENT_SET_NO = 999
REV_AT_EPOCH   = 554
BSTAR          = .10775071E-2
MEAN_MOTION_DOT = .58994E-3
MEAN_MOTION_DDOT = 0

CCSDS_OMM_VERS = 2.0
CREATION_DATE  = 
ORIGINATOR     = 

OBJECT_NAME    = STARLINK-36266
OBJECT_ID      = 2026-038Z
CENTER_NAME    = EARTH
REF_FRAME      = TEME
TIME_SYSTEM    = UTC
MEAN_ELEMENT_THEORY = SGP/SGP4

EPOCH          = 2026-03-25T14:00:01.999872
MEAN_MOTION    = 15.39068756
ECCENTRICITY   = .00021296
INCLINATION    = 97.2851
RA_OF_ASC_NODE = 95.5467
ARG_OF_PERICENTER = 89.2621
MEAN_ANOMALY   = 137.1184

EPHEMERIS_TYPE = 0
CLASSIFICATION_TYPE = U
NORAD_CAT_ID   = 67984
ELEMENT_SET_NO = 999
REV_AT_EPOCH   = 572
BSTAR          = -.65679143E-1
MEAN_MOTION_DOT = -.2271789E-1
MEAN_MOTION_DDOT = 0

CCSDS_OMM_VERS = 2.0
CREATION_DATE  = 
ORIGINATOR     = 

OBJECT_NAME    = STARLINK-36802
OBJECT_ID      = 2026-038AA
CENTER_NAME    = EARTH
REF_FRAME      = TEME
TIME_SYSTEM    = UTC
MEAN_ELEMENT_THEORY = SGP/SGP4

EPOCH          = 2026-03-25T11:01:12.977472
MEAN_MOTION    = 15.75274386
ECCENTRICITY   = .00009138
INCLINATION    = 97.2891
RA_OF_ASC_NODE = 95.6045
ARG_OF_PERICENTER = 37.2100
MEAN_ANOMALY   = 322.9228

EPHEMERIS_TYPE = 0
CLASSIFICATION_TYPE = U
NORAD_CAT_ID   = 67985
ELEMENT_SET_NO = 999
REV_AT_EPOCH   = 567
BSTAR          = .15738817E-2
MEAN_MOTION_DOT = .242292E-2
MEAN_MOTION_DDOT = 0

CCSDS_OMM_VERS = 2.0
CREATION_DATE  = 
ORIGINATOR     = 

OBJECT_NAME    = STARLINK-36535
OBJECT_ID      = 2026-039A
CENTER_NAME    = EARTH
REF_FRAME      = TEME
TIME_SYSTEM    = UTC
MEAN_ELEMENT_THEORY = SGP/SGP4

EPOCH          = 2026-03-25T14:00:01.999872
MEAN_MOTION    = 15.36447209
ECCENTRICITY   = .00015168
INCLINATION    = 42.9991
RA_OF_ASC_NODE = 319.8054
ARG_OF_PERICENTER = 264.9280
MEAN_ANOMALY   = 211.3437

EPHEMERIS_TYPE = 0
CLASSIFICATION_TYPE = U
NORAD_CAT_ID   = 67986
ELEMENT_SET_NO = 999
REV_AT_EPOCH   = 543
BSTAR          = -.52976253E-1
MEAN_MOTION_DOT = -.1739888E-1
MEAN_MOTION_DDOT = 0

CCSDS_OMM_VERS = 2.0
CREATION_DATE  = 
ORIGINATOR     = 

OBJECT_NAME    = STARLINK-36744
OBJECT_ID      = 2026-039B
CENTER_NAME    = EARTH
REF_FRAME      = TEME
TIME_SYSTEM    = UTC
MEAN_ELEMENT_THEORY = SGP/SGP4

EPOCH          = 2026-03-25T14:00:01.999872
MEAN_MOTION    = 15.38744859
ECCENTRICITY   = .00009998
INCLINATION    = 42.9994
RA_OF_ASC_NODE = 319.6356
ARG_OF_PERICENTER = 262.3404
MEAN_ANOMALY   = 283.0678

EPHEMERIS_TYPE = 0
CLASSIFICATION_TYPE = U
NORAD_CAT_ID   = 67987
ELEMENT_SET_NO = 999
REV_AT_EPOCH   = 543
BSTAR          = -.52448937E-1
MEAN_MOTION_DOT = -.1845304E-1
MEAN_MOTION_DDOT = 0

CCSDS_OMM_VERS = 2.0
CREATION_DATE  = 
ORIGINATOR     = 

OBJECT_NAME    = STARLINK-36734
OBJECT_ID      = 2026-039C
CENTER_NAME    = EARTH
REF_FRAME      = TEME
TIME_SYSTEM    = UTC
MEAN_ELEMENT_THEORY = SGP/SGP4

EPOCH          = 2026-03-24T21:59:33.319104
MEAN_MOTION    = 15.50576936
ECCENTRICITY   = .00011902
INCLINATION    = 42.9979
RA_OF_ASC_NODE = 324.5698
ARG_OF_PERICENTER = 279.8657
MEAN_ANOMALY   = 80.2069

EPHEMERIS_TYPE = 0
CLASSIFICATION_TYPE = U
NORAD_CAT_ID   = 67988
ELEMENT_SET_NO = 999
REV_AT_EPOCH   = 401
BSTAR          = .14855833E-2
MEAN_MOTION_DOT = .87787E-3
MEAN_MOTION_DDOT = 0

CCSDS_OMM_VERS = 2.0
CREATION_DATE  = 
ORIGINATOR     = 

OBJECT_NAME    = STARLINK-36957
OBJECT_ID      = 2026-039D
CENTER_NAME    = EARTH
REF_FRAME      = TEME
TIME_SYSTEM    = UTC
MEAN_ELEMENT_THEORY = SGP/SGP4

EPOCH          = 2026-03-25T14:00:01.999872
MEAN_MOTION    = 15.41395543
ECCENTRICITY   = .00011868
INCLINATION    = 42.9993
RA_OF_ASC_NODE = 319.6319
ARG_OF_PERICENTER = 262.1433
MEAN_ANOMALY   = 284.7058

EPHEMERIS_TYPE = 0
CLASSIFICATION_TYPE = U
NORAD_CAT_ID   = 67989
ELEMENT_SET_NO = 999
REV_AT_EPOCH   = 543
BSTAR          = -.49623998E-1
MEAN_MOTION_DOT = -.1900944E-1
MEAN_MOTION_DDOT = 0

CCSDS_OMM_VERS = 2.0
CREATION_DATE  = 
ORIGINATOR     = 

OBJECT_NAME    = STARLINK-36951
OBJECT_ID      = 2026-039E
CENTER_NAME    = EARTH
REF_FRAME      = TEME
TIME_SYSTEM    = UTC
MEAN_ELEMENT_THEORY = SGP/SGP4

EPOCH          = 2026-03-25T01:07:19.896384
MEAN_MOTION    = 15.50598247
ECCENTRICITY   = .00029674
INCLINATION    = 43.0018
RA_OF_ASC_NODE = 322.9387
ARG_OF_PERICENTER = 275.8567
MEAN_ANOMALY   = 84.1955

EPHEMERIS_TYPE = 0
CLASSIFICATION_TYPE = U
NORAD_CAT_ID   = 67990
ELEMENT_SET_NO = 999
REV_AT_EPOCH   = 404
BSTAR          = .10464842E-2
MEAN_MOTION_DOT = .61583E-3
MEAN_MOTION_DDOT = 0

CCSDS_OMM_VERS = 2.0
CREATION_DATE  = 
ORIGINATOR     = 

OBJECT_NAME    = STARLINK-36941
OBJECT_ID      = 2026-039F
CENTER_NAME    = EARTH
REF_FRAME      = TEME
TIME_SYSTEM    = UTC
MEAN_ELEMENT_THEORY = SGP/SGP4

EPOCH          = 2026-03-25T08:47:58.947072
MEAN_MOTION    = 15.50594080
ECCENTRICITY   = .00006803
INCLINATION    = 42.9977
RA_OF_ASC_NODE = 321.9253
ARG_OF_PERICENTER = 9.3554
MEAN_ANOMALY   = 350.7319

EPHEMERIS_TYPE = 0
CLASSIFICATION_TYPE = U
NORAD_CAT_ID   = 67991
ELEMENT_SET_NO = 999
REV_AT_EPOCH   = 408
BSTAR          = .98474166E-3
MEAN_MOTION_DOT = .57887E-3
MEAN_MOTION_DDOT = 0

